STRAND-1                
1 39090U 13009E   24032.49662261  .00000485  00000+0  18201-3 0  9992
2 39090  98.3805 224.5407 0008029 305.2904  54.7531 14.35872178572625
BRITE-AUSTRIA           
1 39091U 13009F   24032.51994654  .00000303  00000+0  11983-3 0  9999
2 39091  98.3841 223.8218 0009550 312.1604  47.8770 14.35670102572656
NEE-01 PEGASO           
1 39151U 13018B   24032.57429059  .00003158  00000+0  38074-3 0  9995
2 39151  98.0216 148.6329 0016389 123.0697 237.2094 14.84469150581705
ESTCUBE 1               
1 39161U 13021C   24032.19246085  .00002020  00000+0  30386-3 0  9999
2 39161  97.8458 102.8209 0008175 319.1478  40.9118 14.75499894576886
POPACS 1                
1 39268U 13055D   24032.48773302  .00029429  00000+0  57020-3 0  9999
2 39268  80.9865 306.8173 0447154 168.6306 192.5433 14.82106386540228
POPACS 2                
1 39269U 13055E   24032.42265616  .00022128  00000+0  53189-3 0  9999
2 39269  81.0040  27.2587 0574518  18.6966 343.4401 14.51056098535721
POPACS 3                
1 39270U 13055F   24032.54747861  .00009865  00000+0  27580-3 0  9990
2 39270  81.0079  73.5007 0643254 148.3334 215.8295 14.33309416513364
ZACUBE-1 (TSHEPISOSAT)  
1 39417U 13066B   24032.83836186  .00005024  00000+0  54895-3 0  9998
2 39417  97.7177 352.2134 0050698 250.4849 109.0887 14.87374401551300
WNISAT-1                
1 39423U 13066H   24032.51369180  .00000817  00000+0  16487-3 0  9995
2 39423  97.6777 237.8811 0172516  78.3271 283.7231 14.54798188540567
TRITON-1                
1 39427U 13066M   24032.95624724  .00002556  00000+0  37404-3 0  9999
2 39427  97.8428 315.4773 0105369 159.6014 200.9451 14.72768145546152
DELFI-N3XT              
1 39428U 13066N   24032.34444884  .00004257  00000+0  57572-3 0  9998
2 39428  97.8391 314.5613 0105111 170.5146 189.8082 14.75723421545894
GOMX-1                  
1 39430U 13066Q   24032.87166922  .00003094  00000+0  52863-3 0  9999
2 39430  97.7524 275.4391 0141751 326.3469  32.8792 14.63174675542925
CUBEBUG-2 (LO-74)       
1 39440U 13066AA  24032.70140444  .00005222  00000+0  64118-3 0  9994
2 39440  97.7999 339.6178 0072364   1.2653 358.8729 14.81625302548111
NEE-02 KRYSAOR          
1 39441U 13066AB  24032.35492306  .00003212  00000+0  42133-3 0  9993
2 39441  97.8104 335.6103 0076679  21.7121 338.7311 14.78949285547708
FUNCUBE-1 (AO-73)       
1 39444U 13066AE  24032.83250542  .00006082  00000+0  62718-3 0  9992
2 39444  97.7033 355.0413 0048658 232.4984 127.1806 14.89694248549793
UWE-3                   
1 39446U 13066AG  24032.82146385  .00005365  00000+0  62452-3 0  9990
2 39446  97.7657 345.8032 0061289 308.4200  51.1522 14.84334417548469
BRITE-CA1 (TORONTO)     
1 40020U 14033L   24032.39376096  .00001884  00000+0  31392-3 0  9992
2 40020  97.8533 174.5803 0084289 168.0503 192.2729 14.68815638514782
DUCHIFAT-1              
1 40021U 14033M   24032.73182321  .00010440  00000+0  78029-3 0  9993
2 40021  98.0813  10.1510 0013070 190.4668 169.6286 15.02924947523608
NANOSATC-BR1            
1 40024U 14033Q   24032.40234959  .00007375  00000+0  59755-3 0  9993
2 40024  98.0634 359.3057 0007779 247.5381 112.5018 15.00001021522720
QB50P1                  
1 40025U 14033R   24032.85464803  .00006065  00000+0  53055-3 0  9998
2 40025  98.0257 349.5650 0008981 250.6054 109.4196 14.97096250522466
QB50P2                  
1 40032U 14033Y   24032.58256202  .00005943  00000+0  53413-3 0  9990
2 40032  97.9919 341.8296 0008681 247.8607 112.1692 14.96047726522754
PERSEUS-M2              
1 40037U 14033AD  24032.76995054  .00002210  00000+0  23725-3 0  9997
2 40037  97.9203 323.2428 0011956 287.7435  72.2477 14.89585502521518
PERSEUS-M1              
1 40039U 14033AF  24032.70503816  .00002052  00000+0  22224-3 0  9991
2 40039  97.9027 319.6107 0011800 287.3329  72.6597 14.89308501521365
POLYITAN-1              
1 40042U 14033AJ  24032.86122161  .00007903  00000+0  65817-3 0  9997
2 40042  98.0366 352.2643 0010612 241.8914 118.1236 14.98894792522392
TIGRISAT                
1 40043U 14033AK  24032.41920628  .00002112  00000+0  29284-3 0  9998
2 40043  97.6780 201.2895 0057134  29.8406 330.6042 14.77844947517259
AEROCUBE 6A             
1 40045U 14033AM  24032.43750589  .00004325  00000+0  54767-3 0  9991
2 40045  97.6595 211.6075 0052706  11.0870 349.1491 14.81301103517539
AEROCUBE 6B             
1 40046U 14033AN  24032.48402270  .00004355  00000+0  54121-3 0  9995
2 40046  97.6553 210.2486 0051274   7.0610 353.1314 14.82126438517582
UKUBE-1                 
1 40074U 14037F   24032.70550642  .00005730  00000+0  58143-3 0  9998
2 40074  98.3400 314.5837 0004625 141.0005 219.1546 14.91285202518422
BRITE-PL2 (HEWELIUSZ)   
1 40119U 14049B   24032.74255746  .00002597  00000+0  28908-3 0  9996
2 40119  97.8800 133.1923 0017502  93.4040 266.9179 14.87881629512288
GRIFEX                  
1 40379U 15003D   24032.75041348  .00362954  51095-4  12564-2 0  9998
2 40379  99.0807  36.6452 0029655 172.1963 187.9771 15.88698641499086
CP10 (EXOCUBE)          
1 40380U 15003E   24032.77874183  .00055780  00000+0  83270-3 0  9997
2 40380  99.1032  19.9182 0062132 231.6044 127.9614 15.52606527498072
EXACTVIEW 9             
1 40936U 15052G   24006.07845669  .00002815  00000+0  28083-3 0  9991
2 40936   6.0026  75.6655 0010627 288.6842  71.2132 14.79620840447345
AEROCUBE 5C             
1 40965U 15058B   24032.48669247  .00004209  00000+0  42333-3 0  9992
2 40965  64.7714  60.8051 0180532 351.1857   8.6090 14.81190341236785
AEROCUBE 7              
1 40966U 15058C   24032.45257067  .00005744  00000+0  55635-3 0  9997
2 40966  64.7698  55.7975 0176860 350.8955   8.8956 14.82609992236825
VELOX-II                
1 41171U 15077F   24030.32463559  .00053957  00000+0  11415-2 0  9992
2 41171  14.9904  57.1246 0005856 187.6787 172.3449 15.43204018450137
HORYU-4                 
1 41340U 16012D   24032.63688215  .00009934  00000+0  55050-3 0  9994
2 41340  31.0025 142.7543 0010784  31.7491 328.3796 15.12473948437439
E-ST@R-II               
1 41459U 16025D   24032.84944868  .00093385  00000+0  12616-2 0  9994
2 41459  98.1501 265.7745 0064074   8.9722 351.2658 15.54984900428249
RAVAN                   
1 41849U 16067B   24032.41653664  .00010652  00000+0  64781-3 0  9994
2 41849  98.0535 202.5249 0014717 132.0692 228.1791 15.10558016395318
CELTEE 1                
1 41850U 16067C   24032.91251781  .00005568  00000+0  40341-3 0  9991
2 41850  98.0872 195.7456 0000585  54.8627 305.2652 15.04404832394922
OPTICUBE 04             
1 41851U 16067D   24032.39203594  .00004180  00000+0  32806-3 0  9999
2 41851  98.0536 191.8745 0016214 151.2893 208.9226 15.01416810394709
AEROCUBE 8D             
1 41852U 16067E   24032.39585676  .00006907  00000+0  48837-3 0  9994
2 41852  98.0909 194.6474 0004929 200.7144 159.3882 15.05220014394804
AEROCUBE 8C             
1 41853U 16067F   24032.40349436  .00006645  00000+0  47072-3 0  9998
2 41853  98.0708 193.5871 0008733 136.1536 224.0384 15.05141508394790
PROMETHEUS 2-1          
1 41854U 16067G   24032.43607313  .00011564  00000+0  68252-3 0  9992
2 41854  98.0878 198.9938 0014296 159.8526 200.3269 15.11625963395041
PROMETHEUS 2-3          
1 41855U 16067H   24032.43140612  .00011877  00000+0  70166-3 0  9991
2 41855  98.0800 198.6115 0012035 169.4136 190.7348 15.11609854395045
DIDO-2                  
1 42000U 17008BE  24032.90123162  .00052000  00000+0  75383-3 0  9992
2 42000  97.1646  92.0260 0002729 270.5211  89.5731 15.55693961387436
AALTO-1                 
1 42775U 17036L   24032.90295975  .00036532  00000+0  67841-3 0  9996
2 42775  97.1269  62.8530 0007109   8.1378 351.9988 15.48815173367900
URSA MAIOR              
1 42776U 17036M   24032.81272422  .00053634  00000+0  81561-3 0  9996
2 42776  97.1262  65.2027 0005533   0.3075 359.8182 15.54362625368033
DIAMOND RED             
1 42783U 17036U   24032.33143521  .00086695  00000+0  90612-3 0  9998
2 42783  97.1172  69.6919 0003802  12.4468 347.6885 15.64185082368289
DIAMOND GREEN           
1 42785U 17036W   24032.85608809  .00129230  00000+0  10495-2 0  9995
2 42785  97.1123  71.2292 0002760   6.6212 353.5087 15.70316954368500
DIAMOND BLUE            
1 42786U 17036X   24032.83160872  .00109625  00000+0  10267-2 0  9990
2 42786  97.1173  70.7241 0003256   0.7494 359.3772 15.66876502368467
CICERO 6                
1 42793U 17036AE  24032.09940282  .00055099  00000+0  75856-3 0  9998
2 42793  97.1164  68.3828 0004343   5.8714 354.2592 15.57075029368276
CORVUS BC2              
1 42846U 17042X   24032.83226155  .00002857  00000+0  25703-3 0  9992
2 42846  97.3740 225.6504 0008951 148.9755 211.1998 14.96349473357042
CORVUS BC1              
1 42847U 17042Y   24032.07137420  .00003955  00000+0  35277-3 0  9992
2 42847  97.3722 225.3144 0008871 151.6175 208.5532 14.96481002356945
MIRATA                  
1 43015U 17073C   24032.63791394  .00019066  00000+0  10180-2 0  9997
2 43015  97.6097 279.5287 0190361   5.3701 354.9503 15.00849474335809
MAKERSAT 0              
1 43016U 17073D   24032.64274816  .00011246  00000+0  68748-3 0  9990
2 43016  97.6013 275.6924 0209933  21.0437 339.9263 14.93816279335501
CORVUS BC3              
1 43118U 18004H   24032.94287284  .00059098  00000+0  82143-3 0  9996
2 43118  97.3010 114.2419 0004675  19.0556 341.0873 15.56798703337537
GOMX-4B                 
1 43196U 18015E   24032.40311298  .00030467  00000+0  56749-3 0  9990
2 43196  97.5960 197.3385 0010628  95.8840 264.3622 15.48734486334261
GOMX-4A                 
1 43197U 18015F   24032.88817636  .00040866  00000+0  62689-3 0  9994
2 43197  97.5924 201.4084 0009490  84.3774 275.8561 15.54149614334583
